[{"OBJECT_NAME":"STARLINK-5359","OBJECT_ID":"2022-177AW","EPOCH":"2026-03-09T04:46:35.333184","MEAN_MOTION":15.02537147,"ECCENTRICITY":0.00013428,"INCLINATION":43.0015,"RA_OF_ASC_NODE":122.7958,"ARG_OF_PERICENTER":281.4954,"MEAN_ANOMALY":78.5738,"EPHEMERIS_TYPE":0,"CLASSIFICATION_TYPE":"U","NORAD_CAT_ID":54864,"ELEMENT_SET_NO":999,"REV_AT_EPOCH":17703,"BSTAR":-5.0209848e-5,"MEAN_MOTION_DOT":-8.82e-6,"MEAN_MOTION_DDOT":0},{"OBJECT_NAME":"COSMOS 2251 DEB","OBJECT_ID":"1993-036KZ","EPOCH":"2026-03-09T13:28:08.575968","MEAN_MOTION":15.07827872,"ECCENTRICITY":0.00279097,"INCLINATION":73.9949,"RA_OF_ASC_NODE":118.7357,"ARG_OF_PERICENTER":226.7607,"MEAN_ANOMALY":259.798,"EPHEMERIS_TYPE":0,"CLASSIFICATION_TYPE":"U","NORAD_CAT_ID":34128,"ELEMENT_SET_NO":999,"REV_AT_EPOCH":90472,"BSTAR":0.0021198383,"MEAN_MOTION_DOT":0.0003287,"MEAN_MOTION_DDOT":0}]
